{
  "type": "FeatureCollection",
  "features": [
    {
      "type": "Feature",
      "properties": {
        "norad_id": 66525,
        "name": "STARLINK-35975",
        "group": "last-30-days",
        "lat": 6.566775665810515,
        "lon": -145.8598456398546,
        "alt_km": 443.16838430857206,
        "timestamp": "2025-12-14T22:38:39.516446+00:00",
        "meta_object_name": "STARLINK-35975",
        "meta_object_id": "2025-265K",
        "meta_epoch": "2025-12-14T06:00:02.999808",
        "meta_mean_motion": 15.40645454,
        "meta_eccentricity": 0.00014006,
        "meta_inclination": 43.0002,
        "meta_ra_of_asc_node": 45.2333,
        "meta_arg_of_pericenter": 273.438,
        "meta_mean_anomaly": 5.9284,
        "meta_ephemeris_type": 0,
        "meta_classification_type": "U",
        "meta_norad_cat_id": 66525,
        "meta_element_set_no": 999,
        "meta_rev_at_epoch": 523,
        "meta_bstar": 0.0011536922,
        "meta_mean_motion_dot": 0.00048106,
        "meta_mean_motion_ddot": 0,
        "tle_line1": "1 66525U 25265K   25348.25003472  .00048106  00000+0  11537-2 0  9996",
        "tle_line2": "2 66525  43.0002  45.2333 0001400 273.4380   5.9284 15.40645454  5233"
      },
      "geometry": {
        "type": "Point",
        "coordinates": [
          -145.8598456398546,
          6.566775665810515
        ]
      }
    },
    {
      "type": "Feature",
      "properties": {
        "norad_id": 66526,
        "name": "STARLINK-35932",
        "group": "last-30-days",
        "lat": -32.938497514934184,
        "lon": -94.8724702547572,
        "alt_km": 416.6745811279843,
        "timestamp": "2025-12-14T22:38:39.516456+00:00",
        "meta_object_name": "STARLINK-35932",
        "meta_object_id": "2025-265L",
        "meta_epoch": "2025-12-13T20:54:41.843232",
        "meta_mean_motion": 15.50605545,
        "meta_eccentricity": 8.514e-05,
        "meta_inclination": 43.0009,
        "meta_ra_of_asc_node": 47.355,
        "meta_arg_of_pericenter": 238.3723,
        "meta_mean_anomaly": 121.7055,
        "meta_ephemeris_type": 0,
        "meta_classification_type": "U",
        "meta_norad_cat_id": 66526,
        "meta_element_set_no": 999,
        "meta_rev_at_epoch": 393,
        "meta_bstar": 0.0016673224,
        "meta_mean_motion_dot": 0.00098808,
        "meta_mean_motion_ddot": 0,
        "tle_line1": "1 66526U 25265L   25347.87131763  .00098808  00000+0  16673-2 0  9999",
        "tle_line2": "2 66526  43.0009  47.3550 0000851 238.3723 121.7055 15.50605545  3931"
      },
      "geometry": {
        "type": "Point",
        "coordinates": [
          -94.8724702547572,
          -32.938497514934184
        ]
      }
    },
    {
      "type": "Feature",
      "properties": {
        "norad_id": 66527,
        "name": "STARLINK-35935",
        "group": "last-30-days",
        "lat": -33.96591976184372,
        "lon": -92.63206689820906,
        "alt_km": 415.3462790310914,
        "timestamp": "2025-12-14T22:38:39.516466+00:00",
        "meta_object_name": "STARLINK-35935",
        "meta_object_id": "2025-265M",
        "meta_epoch": "2025-12-13T11:37:41.143872",
        "meta_mean_motion": 15.50556406,
        "meta_eccentricity": 0.00046793,
        "meta_inclination": 43.0007,
        "meta_ra_of_asc_node": 49.6123,
        "meta_arg_of_pericenter": 286.0879,
        "meta_mean_anomaly": 73.9466,
        "meta_ephemeris_type": 0,
        "meta_classification_type": "U",
        "meta_norad_cat_id": 66527,
        "meta_element_set_no": 999,
        "meta_rev_at_epoch": 387,
        "meta_bstar": 0.0023034303,
        "meta_mean_motion_dot": 0.00137109,
        "meta_mean_motion_ddot": 0,
        "tle_line1": "1 66527U 25265M   25347.48450398  .00137109  00000+0  23034-2 0  9992",
        "tle_line2": "2 66527  43.0007  49.6123 0004679 286.0879  73.9466 15.50556406  3873"
      },
      "geometry": {
        "type": "Point",
        "coordinates": [
          -92.63206689820906,
          -33.96591976184372
        ]
      }
    },
    {
      "type": "Feature",
      "properties": {
        "norad_id": 66528,
        "name": "STARLINK-35928",
        "group": "last-30-days",
        "lat": -34.51575341767118,
        "lon": -91.36414388472365,
        "alt_km": 416.86040684609907,
        "timestamp": "2025-12-14T22:38:39.516476+00:00",
        "meta_object_name": "STARLINK-35928",
        "meta_object_id": "2025-265N",
        "meta_epoch": "2025-12-14T04:37:31.787328",
        "meta_mean_motion": 15.50575093,
        "meta_eccentricity": 0.00013745,
        "meta_inclination": 42.9993,
        "meta_ra_of_asc_node": 45.4676,
        "meta_arg_of_pericenter": 257.7908,
        "meta_mean_anomaly": 102.2798,
        "meta_ephemeris_type": 0,
        "meta_classification_type": "U",
        "meta_norad_cat_id": 66528,
        "meta_element_set_no": 999,
        "meta_rev_at_epoch": 398,
        "meta_bstar": 0.0012830245,
        "meta_mean_motion_dot": 0.00075647,
        "meta_mean_motion_ddot": 0,
        "tle_line1": "1 66528U 25265N   25348.19272902  .00075647  00000+0  12830-2 0  9995",
        "tle_line2": "2 66528  42.9993  45.4676 0001374 257.7908 102.2798 15.50575093  3989"
      },
      "geometry": {
        "type": "Point",
        "coordinates": [
          -91.36414388472365,
          -34.51575341767118
        ]
      }
    },
    {
      "type": "Feature",
      "properties": {
        "norad_id": 66529,
        "name": "STARLINK-35933",
        "group": "last-30-days",
        "lat": 29.9085449903939,
        "lon": -176.7922285439273,
        "alt_km": 439.71064622508857,
        "timestamp": "2025-12-14T22:38:39.516486+00:00",
        "meta_object_name": "STARLINK-35933",
        "meta_object_id": "2025-265P",
        "meta_epoch": "2025-12-14T06:00:02.999808",
        "meta_mean_motion": 15.40665622,
        "meta_eccentricity": 0.00010673,
        "meta_inclination": 43.0006,
        "meta_ra_of_asc_node": 45.3224,
        "meta_arg_of_pericenter": 257.3844,
        "meta_mean_anomaly": 344.6364,
        "meta_ephemeris_type": 0,
        "meta_classification_type": "U",
        "meta_norad_cat_id": 66529,
        "meta_element_set_no": 999,
        "meta_rev_at_epoch": 523,
        "meta_bstar": 0.00076971657,
        "meta_mean_motion_dot": 0.00031947,
        "meta_mean_motion_ddot": 0,
        "tle_line1": "1 66529U 25265P   25348.25003472  .00031947  00000+0  76972-3 0  9990",
        "tle_line2": "2 66529  43.0006  45.3224 0001067 257.3844 344.6364 15.40665622  5237"
      },
      "geometry": {
        "type": "Point",
        "coordinates": [
          -176.7922285439273,
          29.9085449903939
        ]
      }
    },
    {
      "type": "Feature",
      "properties": {
        "norad_id": 66530,
        "name": "STARLINK-35961",
        "group": "last-30-days",
        "lat": 14.86735578338857,
        "lon": -155.287049312339,
        "alt_km": 442.12874042745625,
        "timestamp": "2025-12-14T22:38:39.516496+00:00",
        "meta_object_name": "STARLINK-35961",
        "meta_object_id": "2025-265Q",
        "meta_epoch": "2025-12-14T06:00:02.999808",
        "meta_mean_motion": 15.40676083,
        "meta_eccentricity": 0.00010973,
        "meta_inclination": 43.0003,
        "meta_ra_of_asc_node": 45.2618,
        "meta_arg_of_pericenter": 286.7461,
        "meta_mean_anomaly": 340.1179,
        "meta_ephemeris_type": 0,
        "meta_classification_type": "U",
        "meta_norad_cat_id": 66530,
        "meta_element_set_no": 999,
        "meta_rev_at_epoch": 523,
        "meta_bstar": 0.00079810288,
        "meta_mean_motion_dot": 0.00033153,
        "meta_mean_motion_ddot": 0,
        "tle_line1": "1 66530U 25265Q   25348.25003472  .00033153  00000+0  79810-3 0  9997",
        "tle_line2": "2 66530  43.0003  45.2618 0001097 286.7461 340.1179 15.40676083  5234"
      },
      "geometry": {
        "type": "Point",
        "coordinates": [
          -155.287049312339,
          14.86735578338857
        ]
      }
    },
    {
      "type": "Feature",
      "properties": {
        "norad_id": 66531,
        "name": "STARLINK-35960",
        "group": "last-30-days",
        "lat": -1.7823429873060304,
        "lon": -136.88182249162352,
        "alt_km": 445.3401715685186,
        "timestamp": "2025-12-14T22:38:39.516510+00:00",
        "meta_object_name": "STARLINK-35960",
        "meta_object_id": "2025-265R",
        "meta_epoch": "2025-12-14T06:00:02.999808",
        "meta_mean_motion": 15.40865011,
        "meta_eccentricity": 0.00011937,
        "meta_inclination": 43.0002,
        "meta_ra_of_asc_node": 45.2014,
        "meta_arg_of_pericenter": 302.2687,
        "meta_mean_anomaly": 349.4335,
        "meta_ephemeris_type": 0,
        "meta_classification_type": "U",
        "meta_norad_cat_id": 66531,
        "meta_element_set_no": 999,
        "meta_rev_at_epoch": 523,
        "meta_bstar": -0.0073950457,
        "meta_mean_motion_dot": -0.0029905,
        "meta_mean_motion_ddot": 0,
        "tle_line1": "1 66531U 25265R   25348.25003472 -.00299050  00000+0 -73950-2 0  9998",
        "tle_line2": "2 66531  43.0002  45.2014 0001193 302.2687 349.4335 15.40865011  5232"
      },
      "geometry": {
        "type": "Point",
        "coordinates": [
          -136.88182249162352,
          -1.7823429873060304
        ]
      }
    }
  ]
}